STARLINK-30480          
1 58069U 23158U   26068.50969982  .00008629  00000+0  32270-3 0  9998
2 58069  42.9995 245.8442 0003556 286.2390  73.8070 15.27582544135216
TEVEL2-1                
1 63217U 25052H   26068.64782323  .00020683  00000+0  70600-3 0  9994
2 63217  97.3991 324.7682 0004767 104.8919 255.2849 15.30341923 54855
